[{"OBJECT_NAME":"ION SCV-004","OBJECT_ID":"2022-002K","EPOCH":"2026-03-09T16:32:03.244416","MEAN_MOTION":15.29369331,"ECCENTRICITY":0.00072157,"INCLINATION":97.2961,"RA_OF_ASC_NODE":128.2294,"ARG_OF_PERICENTER":1.6783,"MEAN_ANOMALY":358.448,"EPHEMERIS_TYPE":0,"CLASSIFICATION_TYPE":"U","NORAD_CAT_ID":50993,"ELEMENT_SET_NO":999,"REV_AT_EPOCH":23008,"BSTAR":0.00023198467,"MEAN_MOTION_DOT":6.538e-5,"MEAN_MOTION_DDOT":0},{"OBJECT_NAME":"STARLINK-30999","OBJECT_ID":"2023-192W","EPOCH":"2026-03-09T22:45:35.922816","MEAN_MOTION":15.30189669,"ECCENTRICITY":0.00013806,"INCLINATION":53.1605,"RA_OF_ASC_NODE":51.5712,"ARG_OF_PERICENTER":83.6999,"MEAN_ANOMALY":276.4159,"EPHEMERIS_TYPE":0,"CLASSIFICATION_TYPE":"U","NORAD_CAT_ID":58551,"ELEMENT_SET_NO":999,"REV_AT_EPOCH":12616,"BSTAR":7.0059639e-5,"MEAN_MOTION_DOT":1.716e-5,"MEAN_MOTION_DDOT":0}]
